GLOBAL-2                
1 43812U 18099BG  26201.10289273  .00001880  00000+0  12318-3 0  9992
2 43812  97.3546 236.2479 0007070  53.7355 306.4526 15.08843512416878
GLOBAL-4                
1 44499U 19054E   26200.99333911  .00041368  00000+0  37365-3 0  9995
2 44499  45.0055  46.6600 0006040 227.2237 132.8153 15.67463589385506
GLOBAL-9                
1 47971U 21023G   26200.98731968  .00012836  00000+0  24888-3 0  9999
2 47971  44.9814  65.9997 0004042 200.0916 159.9816 15.47734113300023
GLOBAL-14               
1 49469U 21106A   26199.76121180  .00014858  00000+0  24419-3 0  9993
2 49469  42.0036 103.2309 0018251 247.4363 112.4550 15.51942274263035
GLOBAL-12               
1 49772U 21115BA  26200.41069562  .00016351  00000+0  24185-3 0  9990
2 49772  53.1935 249.3669 0002996  75.6439 284.4906 15.55481798260910
GLOBAL-13               
1 49773U 21115BB  26200.88124101  .00009983  00000+0  20130-3 0  9992
2 49773  53.1961 259.0225 0000189 121.2539 238.8488 15.47217053260827
GLOBAL-17               
1 49949U 21120A   26201.20582225  .00014882  00000+0  22882-3 0  9995
2 49949  41.9932 212.2856 0013719 130.0195 230.1856 15.53872736260034
GLOBAL-16               
1 49950U 21120B   26201.26552404  .00013240  00000+0  22161-3 0  9996
2 49950  41.9932 216.3041 0011660 120.3937 239.8061 15.51620829259984
GLOBAL-18               
1 52196U 22034B   26201.01250635  .00014167  00000+0  28055-3 0  9998
2 52196  52.9810  99.6246 0004665  37.6282 322.5049 15.47357530242042
GLOBAL-19               
1 55982U 23041B   26200.88387333  .00008530  00000+0  22396-3 0  9992
2 55982  42.0026  11.1059 0010182 247.3158 112.6606 15.38760174186968
GLOBAL-5                
1 55983U 23041C   26200.85159810  .00008050  00000+0  21174-3 0  9997
2 55983  42.0021  10.8191 0009141 242.6605 117.3305 15.38773416186966
