{"fetched_at":"2026-07-20T18:29:23.173Z","source":"https://celestrak.org/NORAD/elements/gp.php?NAME=GLOBAL&FORMAT=JSON","constellation":"blacksky-gen2","records":[{"OBJECT_NAME":"GLOBAL-2","OBJECT_ID":"2018-099BG","EPOCH":"2026-07-20T02:28:09.931872","CLASSIFICATION_TYPE":"U","MEAN_MOTION":15.08843512,"ECCENTRICITY":0.00070706,"INCLINATION":97.3546,"RA_OF_ASC_NODE":236.2479,"ARG_OF_PERICENTER":53.7355,"MEAN_ANOMALY":306.4526,"EPHEMERIS_TYPE":0,"NORAD_CAT_ID":43812,"ELEMENT_SET_NO":999,"REV_AT_EPOCH":41687,"BSTAR":0.00012317865,"MEAN_MOTION_DOT":0.0000188,"MEAN_MOTION_DDOT":0},{"OBJECT_NAME":"GLOBAL-4","OBJECT_ID":"2019-054E","EPOCH":"2026-07-19T23:50:24.499104","CLASSIFICATION_TYPE":"U","MEAN_MOTION":15.67463589,"ECCENTRICITY":0.00060406,"INCLINATION":45.0055,"RA_OF_ASC_NODE":46.66,"ARG_OF_PERICENTER":227.2237,"MEAN_ANOMALY":132.8153,"EPHEMERIS_TYPE":0,"NORAD_CAT_ID":44499,"ELEMENT_SET_NO":999,"REV_AT_EPOCH":38550,"BSTAR":0.00037364626,"MEAN_MOTION_DOT":0.00041368,"MEAN_MOTION_DDOT":0},{"OBJECT_NAME":"GLOBAL-9","OBJECT_ID":"2021-023G","EPOCH":"2026-07-19T23:41:44.420352","CLASSIFICATION_TYPE":"U","MEAN_MOTION":15.47734113,"ECCENTRICITY":0.00040425,"INCLINATION":44.9814,"RA_OF_ASC_NODE":65.9997,"ARG_OF_PERICENTER":200.0916,"MEAN_ANOMALY":159.9816,"EPHEMERIS_TYPE":0,"NORAD_CAT_ID":47971,"ELEMENT_SET_NO":999,"REV_AT_EPOCH":30002,"BSTAR":0.00024887501,"MEAN_MOTION_DOT":0.00012836,"MEAN_MOTION_DDOT":0},{"OBJECT_NAME":"GLOBAL-14","OBJECT_ID":"2021-106A","EPOCH":"2026-07-18T18:16:08.699520","CLASSIFICATION_TYPE":"U","MEAN_MOTION":15.51942274,"ECCENTRICITY":0.00182515,"INCLINATION":42.0036,"RA_OF_ASC_NODE":103.2309,"ARG_OF_PERICENTER":247.4363,"MEAN_ANOMALY":112.455,"EPHEMERIS_TYPE":0,"NORAD_CAT_ID":49469,"ELEMENT_SET_NO":999,"REV_AT_EPOCH":26303,"BSTAR":0.00024419325,"MEAN_MOTION_DOT":0.00014858,"MEAN_MOTION_DDOT":0},{"OBJECT_NAME":"GLOBAL-12","OBJECT_ID":"2021-115BA","EPOCH":"2026-07-19T09:51:24.101568","CLASSIFICATION_TYPE":"U","MEAN_MOTION":15.55481798,"ECCENTRICITY":0.00029966,"INCLINATION":53.1935,"RA_OF_ASC_NODE":249.3669,"ARG_OF_PERICENTER":75.6439,"MEAN_ANOMALY":284.4906,"EPHEMERIS_TYPE":0,"NORAD_CAT_ID":49772,"ELEMENT_SET_NO":999,"REV_AT_EPOCH":26091,"BSTAR":0.00024185249,"MEAN_MOTION_DOT":0.00016351,"MEAN_MOTION_DDOT":0},{"OBJECT_NAME":"GLOBAL-13","OBJECT_ID":"2021-115BB","EPOCH":"2026-07-19T21:08:59.223264","CLASSIFICATION_TYPE":"U","MEAN_MOTION":15.47217053,"ECCENTRICITY":0.00001899,"INCLINATION":53.1961,"RA_OF_ASC_NODE":259.0225,"ARG_OF_PERICENTER":121.2539,"MEAN_ANOMALY":238.8488,"EPHEMERIS_TYPE":0,"NORAD_CAT_ID":49773,"ELEMENT_SET_NO":999,"REV_AT_EPOCH":26082,"BSTAR":0.00020130056,"MEAN_MOTION_DOT":0.00009983,"MEAN_MOTION_DDOT":0},{"OBJECT_NAME":"GLOBAL-17","OBJECT_ID":"2021-120A","EPOCH":"2026-07-20T04:56:23.042400","CLASSIFICATION_TYPE":"U","MEAN_MOTION":15.53872736,"ECCENTRICITY":0.00137194,"INCLINATION":41.9932,"RA_OF_ASC_NODE":212.2856,"ARG_OF_PERICENTER":130.0195,"MEAN_ANOMALY":230.1856,"EPHEMERIS_TYPE":0,"NORAD_CAT_ID":49949,"ELEMENT_SET_NO":999,"REV_AT_EPOCH":26003,"BSTAR":0.0002288248,"MEAN_MOTION_DOT":0.00014882,"MEAN_MOTION_DDOT":0},{"OBJECT_NAME":"GLOBAL-16","OBJECT_ID":"2021-120B","EPOCH":"2026-07-20T06:22:21.277056","CLASSIFICATION_TYPE":"U","MEAN_MOTION":15.51620829,"ECCENTRICITY":0.00116604,"INCLINATION":41.9932,"RA_OF_ASC_NODE":216.3041,"ARG_OF_PERICENTER":120.3937,"MEAN_ANOMALY":239.8061,"EPHEMERIS_TYPE":0,"NORAD_CAT_ID":49950,"ELEMENT_SET_NO":999,"REV_AT_EPOCH":25998,"BSTAR":0.00022161356,"MEAN_MOTION_DOT":0.0001324,"MEAN_MOTION_DDOT":0},{"OBJECT_NAME":"GLOBAL-18","OBJECT_ID":"2022-034B","EPOCH":"2026-07-20T00:18:00.548640","CLASSIFICATION_TYPE":"U","MEAN_MOTION":15.4735753,"ECCENTRICITY":0.00046657,"INCLINATION":52.981,"RA_OF_ASC_NODE":99.6246,"ARG_OF_PERICENTER":37.6282,"MEAN_ANOMALY":322.5049,"EPHEMERIS_TYPE":0,"NORAD_CAT_ID":52196,"ELEMENT_SET_NO":999,"REV_AT_EPOCH":24204,"BSTAR":0.00028054713,"MEAN_MOTION_DOT":0.00014167,"MEAN_MOTION_DDOT":0},{"OBJECT_NAME":"GLOBAL-19","OBJECT_ID":"2023-041B","EPOCH":"2026-07-19T21:12:46.655712","CLASSIFICATION_TYPE":"U","MEAN_MOTION":15.38760174,"ECCENTRICITY":0.00101827,"INCLINATION":42.0026,"RA_OF_ASC_NODE":11.1059,"ARG_OF_PERICENTER":247.3158,"MEAN_ANOMALY":112.6606,"EPHEMERIS_TYPE":0,"NORAD_CAT_ID":55982,"ELEMENT_SET_NO":999,"REV_AT_EPOCH":18696,"BSTAR":0.00022396406,"MEAN_MOTION_DOT":0.0000853,"MEAN_MOTION_DDOT":0},{"OBJECT_NAME":"GLOBAL-5","OBJECT_ID":"2023-041C","EPOCH":"2026-07-19T20:26:18.075840","CLASSIFICATION_TYPE":"U","MEAN_MOTION":15.38773416,"ECCENTRICITY":0.00091412,"INCLINATION":42.0021,"RA_OF_ASC_NODE":10.8191,"ARG_OF_PERICENTER":242.6605,"MEAN_ANOMALY":117.3305,"EPHEMERIS_TYPE":0,"NORAD_CAT_ID":55983,"ELEMENT_SET_NO":999,"REV_AT_EPOCH":18696,"BSTAR":0.00021174153,"MEAN_MOTION_DOT":0.0000805,"MEAN_MOTION_DDOT":0}]}
